NORAD_CAT_ID,OBJECT_NAME,OBJECT_TYPE,EPOCH,MEAN_MOTION,ECCENTRICITY,INCLINATION,RA_OF_ASC_NODE,ARG_OF_PERICENTER,MEAN_ANOMALY,BSTAR,MEAN_MOTION_DOT,MEAN_MOTION_DDOT,TLE_LINE0,TLE_LINE1,TLE_LINE2,SEMIMAJOR_AXIS,PERIOD,APOGEE,PERIGEE,DECAYED
49444.0,STARLINK-3126,PAYLOAD,2023-06-09 19:31:11,15.08837008,0.0001074,53.2178,35.7043,94.7118,265.3996,3.4897e-05,2.68e-06,0.0,0 STARLINK-3126,1 49444U 21104AN  23160.81332292  .00000268  00000-0  34897-4 0  9996,2 49444  53.2178  35.7043 0001074  94.7118 265.3996 15.08837008 87361,6917.89,95.438,540.498,539.012,0.0
49444.0,STARLINK-3126,PAYLOAD,2023-06-10 01:52:43,15.08843917,0.0001024,53.2176,34.5156,94.9853,265.1256,0.00010764,1.426e-05,0.0,0 STARLINK-3126,1 49444U 21104AN  23161.07827665  .00001426  00000-0  10764-3 0  9991,2 49444  53.2176  34.5156 0001024  94.9853 265.1256 15.08843917 88470,6917.868,95.437,540.442,539.025,0.0
49444.0,STARLINK-3126,PAYLOAD,2023-06-10 08:14:15,15.0884186,9.73e-05,53.2174,33.3271,92.2522,267.8581,2.4522e-06,-2.49e-06,0.0,0 STARLINK-3126,1 49444U 21104AN  23161.34324014 -.00000249  00000-0  24522-5 0  9993,2 49444  53.2174  33.3271 0000973  92.2522 267.8581 15.08841860 87440,6917.875,95.437,540.413,539.067,0.0
49444.0,STARLINK-3126,PAYLOAD,2023-06-10 16:11:12,15.08835568,9.71e-05,53.2177,31.8386,91.9147,268.1956,8.7446e-06,-1.49e-06,0.0,0 STARLINK-3126,1 49444U 21104AN  23161.67444627 -.00000149  00000-0  87446-5 0  9995,2 49444  53.2177  31.8386 0000971  91.9147 268.1956 15.08835568 88562,6917.894,95.438,540.431,539.087,0.0
49444.0,STARLINK-3126,PAYLOAD,2023-06-10 22:32:44,15.08835027,0.0001001,53.2178,30.6492,85.4635,274.6472,1.4617e-05,-5.5e-07,0.0,0 STARLINK-3126,1 49444U 21104AN  23161.93940726 -.00000055  00000-0  14617-4 0  9990,2 49444  53.2178  30.6492 0001001  85.4635 274.6472 15.08835027 87534,6917.896,95.438,540.453,539.068,0.0
49444.0,STARLINK-3126,PAYLOAD,2023-06-11 08:05:03,15.08840791,0.000112,53.2179,28.865,94.5495,265.5625,8.9517e-05,1.137e-05,0.0,0 STARLINK-3126,1 49444U 21104AN  23162.33684096  .00001137  00000-0  89517-4 0  9992,2 49444  53.2179  28.8650 0001120  94.5495 265.5625 15.08840791 88665,6917.878,95.438,540.518,538.968,0.0
49444.0,STARLINK-3126,PAYLOAD,2023-06-12 07:55:50,15.08840749,0.0001209,53.2196,24.4039,85.3908,274.7222,1.1408e-06,-2.7e-06,0.0,0 STARLINK-3126,1 49444U 21104AN  23163.33044480 -.00000270  00000-0  11408-5 0  9993,2 49444  53.2196  24.4039 0001209  85.3908 274.7222 15.08840749 88817,6917.878,95.438,540.579,538.907,0.0
49444.0,STARLINK-3126,PAYLOAD,2023-06-12 20:38:55,15.08840824,0.0001154,53.2192,22.0265,97.2341,262.8782,8.7518e-05,1.105e-05,0.0,0 STARLINK-3126,1 49444U 21104AN  23163.86036331  .00001105  00000-0  87518-4 0  9998,2 49444  53.2192  22.0265 0001154  97.2341 262.8782 15.08840824 87823,6917.878,95.438,540.541,538.945,0.0
49444.0,STARLINK-3126,PAYLOAD,2023-06-12 23:49:41,15.08843031,0.0001128,53.2192,21.4313,95.6746,264.4375,6.7137e-05,7.81e-06,0.0,0 STARLINK-3126,1 49444U 21104AN  23163.99284234  .00000781  00000-0  67137-4 0  9993,2 49444  53.2192  21.4313 0001128  95.6746 264.4375 15.08843031 87843,6917.871,95.437,540.516,538.956,0.0
49444.0,STARLINK-3126,PAYLOAD,2023-06-13 20:29:42,15.0883624,9.09e-05,53.2179,17.5643,91.5409,268.5687,7.4147e-05,8.92e-06,0.0,0 STARLINK-3126,1 49444U 21104AN  23164.85396662  .00000892  00000-0  74147-4 0  9990,2 49444  53.2179  17.5643 0000909  91.5409 268.5687 15.08836240 89046,6917.892,95.438,540.386,539.128,0.0
49444.0,STARLINK-3126,PAYLOAD,2023-06-14 13:58:57,15.08840293,9.72e-05,53.2175,14.2956,81.5173,278.593,8.056e-05,9.95e-06,0.0,0 STARLINK-3126,1 49444U 21104AN  23165.58260491  .00000995  00000-0  80560-4 0  9991,2 49444  53.2175  14.2956 0000972  81.5173 278.5930 15.08840293 88088,6917.879,95.438,540.417,539.072,0.0
49444.0,STARLINK-3126,PAYLOAD,2023-06-14 20:20:29,15.08842699,9.88e-05,53.2175,13.1062,82.0808,278.0296,9.7404e-05,1.263e-05,0.0,0 STARLINK-3126,1 49444U 21104AN  23165.84756289  .00001263  00000-0  97404-4 0  9999,2 49444  53.2175  13.1062 0000988  82.0808 278.0296 15.08842699 88129,6917.872,95.437,540.421,539.054,0.0
49444.0,STARLINK-3126,PAYLOAD,2023-06-14 23:31:15,15.08846903,9.9e-05,53.2179,12.5104,86.4249,273.6856,5.4107e-05,5.74e-06,0.0,0 STARLINK-3126,1 49444U 21104AN  23165.98004114  .00000574  00000-0  54107-4 0  9994,2 49444  53.2179  12.5104 0000990  86.4249 273.6856 15.08846903 89219,6917.859,95.437,540.409,539.039,0.0
49444.0,STARLINK-3126,PAYLOAD,2023-06-15 18:35:53,15.088397,9.97e-05,53.2173,8.9428,77.9274,282.183,4.0525e-05,3.57e-06,0.0,0 STARLINK-3126,1 49444U 21104AN  23166.77492684  .00000357  00000-0  40525-4 0  9993,2 49444  53.2173   8.9428 0000997  77.9274 282.1830 15.08839700 89338,6917.881,95.438,540.436,539.057,0.0
49444.0,STARLINK-3126,PAYLOAD,2023-06-16 13:40:30,15.08844064,0.0001007,53.2173,5.3728,89.408,270.7028,5.523e-05,5.91e-06,0.0,0 STARLINK-3126,1 49444U 21104AN  23167.56980225  .00000591  00000-0  55230-4 0  9993,2 49444  53.2173   5.3728 0001007  89.4080 270.7028 15.08844064 88383,6917.868,95.437,540.43,539.036,0.0
49444.0,STARLINK-3126,PAYLOAD,2023-06-16 20:02:02,15.08851795,0.0001001,53.2174,4.1845,82.3462,277.7643,0.0001149,1.542e-05,0.0,0 STARLINK-3126,1 49444U 21104AN  23167.83475467  .00001542  00000-0  11490-3 0  9996,2 49444  53.2174   4.1845 0001001  82.3462 277.7643 15.08851795 88425,6917.844,95.437,540.402,539.017,0.0
49444.0,STARLINK-3126,PAYLOAD,2023-06-16 23:12:48,15.08853814,0.0001102,53.2174,3.59,86.3344,273.7775,0.00013838,1.916e-05,0.0,0 STARLINK-3126,1 49444U 21104AN  23167.96723235  .00001916  00000-0  13838-3 0  9992,2 49444  53.2174   3.5900 0001102  86.3344 273.7775 15.08853814 89512,6917.838,95.437,540.466,538.941,0.0
49444.0,STARLINK-3126,PAYLOAD,2023-06-17 05:34:23,15.0883132,0.0001337,53.2176,2.3987,79.9917,280.1226,-8.4155e-06,-4.22e-06,0.0,0 STARLINK-3126,1 49444U 21104AN  23168.23221246 -.00000422  00000-0 -84155-5 0  9993,2 49444  53.2176   2.3987 0001337  79.9917 280.1226 15.08831320 89555,6917.907,95.438,540.697,538.847,0.0
49444.0,STARLINK-3126,PAYLOAD,2023-06-17 13:31:19,15.08830009,0.000162,53.2176,0.9122,79.7248,280.3927,-3.4215e-05,-8.32e-06,0.0,0 STARLINK-3126,1 49444U 21104AN  23168.56341703 -.00000832  00000-0 -34215-4 0  9996,2 49444  53.2176   0.9122 0001620  79.7248 280.3927 15.08830009 88530,6917.911,95.438,540.897,538.655,0.0
49444.0,STARLINK-3126,PAYLOAD,2023-06-17 19:52:51,15.08829926,0.0001438,53.2175,359.7227,91.2329,268.8828,-3.5415e-05,-8.51e-06,0.0,0 STARLINK-3126,1 49444U 21104AN  23168.82837773 -.00000851  00000-0 -35415-4 0  9996,2 49444  53.2175 359.7227 0001438  91.2329 268.8828 15.08829926 88577,6917.911,95.438,540.771,538.781,0.0
49444.0,STARLINK-3126,PAYLOAD,2023-06-18 05:25:10,15.08833965,0.0001079,53.2193,357.941,95.9204,264.1911,1.0325e-05,-1.23e-06,0.0,0 STARLINK-3126,1 49444U 21104AN  23169.22581632 -.00000123  00000-0  10325-4 0  9995,2 49444  53.2193 357.9410 0001079  95.9204 264.1911 15.08833965 88632,6917.899,95.438,540.51,539.017,0.0
49444.0,STARLINK-3126,PAYLOAD,2023-06-18 19:43:37,15.08851862,9.71e-05,53.2185,355.2647,91.6453,268.4651,8.4767e-05,1.062e-05,0.0,0 STARLINK-3126,1 49444U 21104AN  23169.82196344  .00001062  00000-0  84767-4 0  9996,2 49444  53.2185 355.2647 0000971  91.6453 268.4651 15.08851862 89797,6917.844,95.437,540.381,539.037,0.0
49444.0,STARLINK-3126,PAYLOAD,2023-06-19 05:15:56,15.08849796,9.21e-05,53.2178,353.4802,97.1092,263.0005,0.00010787,1.43e-05,0.0,0 STARLINK-3126,1 49444U 21104AN  23170.21940412  .00001430  00000-0  10787-3 0  9993,2 49444  53.2178 353.4802 0000921  97.1092 263.0005 15.08849796 88782,6917.85,95.437,540.353,539.078,0.0
49444.0,STARLINK-3126,PAYLOAD,2023-06-20 05:06:44,15.08839274,0.0001128,53.2179,349.0206,85.6622,274.4499,8.6581e-05,1.09e-05,0.0,0 STARLINK-3126,1 49444U 21104AN  23171.21301322  .00001090  00000-0  86581-4 0  9993,2 49444  53.2179 349.0206 0001128  85.6622 274.4499 15.08839274 90004,6917.883,95.438,540.528,538.967,0.0
49444.0,STARLINK-3126,PAYLOAD,2023-06-20 21:00:35,15.0884818,0.0001005,53.2183,346.0461,85.2416,274.8691,5.6042e-05,6.04e-06,0.0,0 STARLINK-3126,1 49444U 21104AN  23171.87540750  .00000604  00000-0  56042-4 0  9994,2 49444  53.2183 346.0461 0001005  85.2416 274.8691 15.08848180 89035,6917.855,95.437,540.416,539.025,0.0
49444.0,STARLINK-3126,PAYLOAD,2023-06-21 11:19:03,15.08837776,9.18e-05,53.2181,343.367,99.0752,261.0344,7.2366e-05,8.64e-06,0.0,0 STARLINK-3126,1 49444U 21104AN  23172.47157206  .00000864  00000-0  72366-4 0  9996,2 49444  53.2181 343.3670 0000918  99.0752 261.0344 15.08837776 90194,6917.887,95.438,540.387,539.117,0.0
49444.0,STARLINK-3126,PAYLOAD,2023-06-21 17:40:36,15.0884064,9.48e-05,53.2181,342.1803,86.2299,273.8801,0.00010042,1.311e-05,0.0,0 STARLINK-3126,1 49444U 21104AN  23172.73653138  .00001311  00000-0  10042-3 0  9990,2 49444  53.2181 342.1803 0000948  86.2299 273.8801 15.08840640 89164,6917.878,95.438,540.399,539.088,0.0
49444.0,STARLINK-3126,PAYLOAD,2023-06-22 17:31:23,15.08839973,0.000116,53.219,337.7174,98.2467,261.8657,6.5059e-05,7.48e-06,0.0,0 STARLINK-3126,1 49444U 21104AN  23173.73013218  .00000748  00000-0  65059-4 0  9992,2 49444  53.2190 337.7174 0001160  98.2467 261.8657 15.08839973 90381,6917.88,95.438,540.548,538.943,0.0
49444.0,STARLINK-3126,PAYLOAD,2023-06-23 11:00:38,15.08832439,6.28e-05,53.2203,334.4489,80.6438,279.4625,-4.0251e-05,-9.28e-06,0.0,0 STARLINK-3126,1 49444U 21104AN  23174.45878209 -.00000928  00000-0 -40251-4 0  9990,2 49444  53.2203 334.4489 0000628  80.6438 279.4625 15.08832439 90492,6917.904,95.438,540.203,539.334,0.0
49444.0,STARLINK-3126,PAYLOAD,2023-06-23 17:22:12,15.08813419,8.76e-05,53.2185,333.2594,85.14,274.9692,-0.00017011,-2.992e-05,0.0,0 STARLINK-3126,1 49444U 21104AN  23174.72376009 -.00002992  00000-0 -17011-3 0  9991,2 49444  53.2185 333.2594 0000876  85.1400 274.9692 15.08813419 90535,6917.962,95.439,540.433,539.221,0.0
